OBJECT_NAME,OBJECT_ID,EPOCH,MEAN_MOTION,ECCENTRICITY,INCLINATION,RA_OF_ASC_NODE,ARG_OF_PERICENTER,MEAN_ANOMALY,EPHEMERIS_TYPE,CLASSIFICATION_TYPE,NORAD_CAT_ID,ELEMENT_SET_NO,REV_AT_EPOCH,BSTAR,MEAN_MOTION_DOT,MEAN_MOTION_DDOT
ONEWEB-0211,2021-045A,2026-07-17T14:22:24.553056,13.16197556,.0002733,87.8986,253.0161,104.8234,255.3199,0,U,48767,999,24844,.25612E-3,.11E-5,0
ONEWEB-0223,2021-045B,2026-07-17T14:47:20.020416,13.15548121,.0002356,87.8990,253.1292,106.3956,253.7433,0,U,48768,999,24840,.56884E-4,.34E-6,0
ONEWEB-0230,2021-045C,2026-07-17T03:09:07.715520,13.15548686,.00019315,87.8978,253.2371,96.1858,263.9492,0,U,48769,999,24860,.22207666E-3,.96E-6,0
ONEWEB-0237,2021-045D,2026-07-17T02:53:08.984832,13.15548446,.00023777,87.8983,253.2412,94.8968,265.2434,0,U,48770,999,24832,.38728598E-4,.27E-6,0
ONEWEB-0235,2021-045E,2026-07-17T15:03:16.525440,13.15550105,.00022563,87.8992,253.1279,107.9127,252.2250,0,U,48771,999,24838,-.1424829E-3,-.41E-6,0
ONEWEB-0242,2021-045F,2026-07-17T02:07:31.134720,13.15548864,.00019971,87.8995,253.2329,103.0317,257.1037,0,U,48772,999,24835,.10749157E-3,.53E-6,0
ONEWEB-0241,2021-045G,2026-07-17T01:49:17.264928,13.15538926,.00024065,87.8983,253.2504,104.6405,255.4992,0,U,48773,999,24826,.39592553E-3,.162E-5,0
ONEWEB-0243,2021-045H,2026-07-17T02:34:52.483296,13.15551133,.00019279,87.8981,253.2570,111.8859,248.2476,0,U,48774,999,24829,-.10062709E-3,-.25E-6,0
ONEWEB-0222,2021-045J,2026-07-17T02:10:56.134272,13.15547104,.00022191,87.8992,253.2298,101.3166,258.8214,0,U,48775,999,24833,-.69334645E-4,-.13E-6,0
ONEWEB-0244,2021-045K,2026-07-17T13:45:43.659936,13.15547917,.0002109,87.8994,253.1304,101.6340,258.5027,0,U,48776,999,24896,-.34823E-3,-.118E-5,0
ONEWEB-0247,2021-045L,2026-07-17T02:43:59.860992,13.15552389,.00021819,87.8983,253.2502,120.8040,239.3305,0,U,48777,999,24834,-.25494859E-2,-.947E-5,0
ONEWEB-0245,2021-045M,2026-07-17T09:55:15.079872,13.15548949,.0002251,87.8990,253.1724,99.0412,261.0973,0,U,48778,999,24835,-.20267E-3,-.63E-6,0
ONEWEB-0229,2021-045N,2026-07-17T13:27:28.258272,13.15548016,.0001999,87.8989,253.1404,99.6150,260.5206,0,U,48779,999,24840,-.21839E-3,-.69E-6,0
ONEWEB-0228,2021-045P,2026-07-17T03:18:26.506656,13.15548997,.00020943,87.8994,253.2191,99.5965,260.5402,0,U,48780,999,24826,.44302276E-3,.18E-5,0
ONEWEB-0232,2021-045Q,2026-07-17T02:41:44.996640,13.15547531,.00021411,87.8992,253.2246,96.8341,263.3033,0,U,48781,999,24858,-.31290913E-3,-.105E-5,0
ONEWEB-0231,2021-045R,2026-07-17T14:56:27.631392,13.15547481,.00022566,87.8991,253.1340,103.1046,257.0337,0,U,48782,999,24834,-.16497412E-3,-.49E-6,0
ONEWEB-0234,2021-045S,2026-07-17T21:19:35.599008,13.15547620,.00026975,87.8993,253.0634,84.0873,276.0564,0,U,48783,999,24851,-.2443675E-3,-.79E-6,0
ONEWEB-0238,2021-045T,2026-07-17T14:01:52.368096,13.15548177,.0002379,87.8991,253.1204,90.3354,269.8049,0,U,48784,999,24837,.13464E-4,.18E-6,0
ONEWEB-0240,2021-045U,2026-07-17T14:32:29.346144,13.15549039,.0002347,87.8992,253.1257,100.8859,259.2536,0,U,48785,999,24840,.30108E-3,.126E-5,0
ONEWEB-0246,2021-045V,2026-07-17T03:27:22.753440,13.15548038,.00020097,87.8994,253.2212,100.8004,259.3353,0,U,48786,999,24821,.53534523E-3,.214E-5,0
ONEWEB-0210,2021-045W,2026-07-17T10:08:57.588864,13.15548486,.0001896,87.8991,253.1632,122.2765,237.8550,0,U,48787,999,24829,-.13191E-3,-.37E-6,0
ONEWEB-0214,2021-045X,2026-07-17T21:18:38.029824,13.15546428,.00017532,87.8987,253.0673,102.3222,257.8105,0,U,48788,999,24832,-.28707867E-4,.2E-7,0
ONEWEB-0221,2021-045Y,2026-07-17T21:28:55.177248,13.15548153,.0002177,87.8985,253.0747,101.5611,258.5764,0,U,48789,999,24841,.7236972E-4,.4E-6,0
ONEWEB-0213,2021-045Z,2026-07-17T13:54:51.092064,13.15548535,.0002108,87.8987,253.1401,105.8702,254.2660,0,U,48790,999,24843,-.1785E-3,-.54E-6,0
ONEWEB-0212,2021-045AA,2026-07-17T02:24:37.024992,13.15547833,.0002138,87.8991,253.2301,95.8702,264.2672,0,U,48791,999,24836,-.1142E-3,-.3E-6,0
ONEWEB-0227,2021-045AB,2026-07-17T02:23:29.353920,13.15548232,.00021226,87.8989,253.2302,98.7676,261.3695,0,U,48792,999,24831,-.23874193E-3,-.77E-6,0
ONEWEB-0226,2021-045AC,2026-07-17T02:14:21.652224,13.15548389,.00020319,87.8990,253.2360,103.8240,256.3117,0,U,48793,999,24828,-.66173236E-4,-.12E-6,0
ONEWEB-0224,2021-045AD,2026-07-17T21:26:38.203872,13.15548503,.00029846,87.8979,253.1090,95.6242,264.5229,0,U,48794,999,24831,.26299492E-4,.23E-6,0
ONEWEB-0233,2021-045AE,2026-07-17T21:33:15.887520,13.15550459,.00022813,87.8981,253.1151,103.0877,257.0508,0,U,48795,999,24833,.3581823E-3,.148E-5,0
ONEWEB-0190,2021-045AF,2026-07-17T13:57:07.872768,13.15548534,.0002332,87.8987,253.1420,114.5666,245.5707,0,U,48796,999,24836,-.11794E-3,-.32E-6,0
