ONEWEB-0211             
1 48767U 21045A   26198.59889529  .00000110  00000+0  25612-3 0  9995
2 48767  87.8986 253.0161 0002733 104.8234 255.3199 13.16197556248445
ONEWEB-0223             
1 48768U 21045B   26198.61620394  .00000034  00000+0  56884-4 0  9993
2 48768  87.8990 253.1292 0002356 106.3956 253.7433 13.15548121248402
ONEWEB-0230             
1 48769U 21045C   26198.13133930  .00000096  00000+0  22208-3 0  9996
2 48769  87.8978 253.2371 0001931  96.1858 263.9492 13.15548686248609
ONEWEB-0237             
1 48770U 21045D   26198.12024288  .00000027  00000+0  38729-4 0  9992
2 48770  87.8983 253.2412 0002377  94.8968 265.2434 13.15548446248329
ONEWEB-0235             
1 48771U 21045E   26198.62727460 -.00000041  00000+0 -14248-3 0  9997
2 48771  87.8992 253.1279 0002256 107.9127 252.2250 13.15550105248382
ONEWEB-0242             
1 48772U 21045F   26198.08855480  .00000053  00000+0  10749-3 0  9995
2 48772  87.8995 253.2329 0001997 103.0317 257.1037 13.15548864248355
ONEWEB-0241             
1 48773U 21045G   26198.07589427  .00000162  00000+0  39593-3 0  9999
2 48773  87.8983 253.2504 0002406 104.6405 255.4992 13.15538926248268
ONEWEB-0243             
1 48774U 21045H   26198.10755189 -.00000025  00000+0 -10063-3 0  9995
2 48774  87.8981 253.2570 0001927 111.8859 248.2476 13.15551133248295
ONEWEB-0222             
1 48775U 21045J   26198.09092748 -.00000013  00000+0 -69335-4 0  9993
2 48775  87.8992 253.2298 0002219 101.3166 258.8214 13.15547104248330
ONEWEB-0244             
1 48776U 21045K   26198.57342199 -.00000118  00000+0 -34823-3 0  9994
2 48776  87.8994 253.1304 0002109 101.6340 258.5027 13.15547917248965
ONEWEB-0247             
1 48777U 21045L   26198.11388728 -.00000947  00000+0 -25495-2 0  9997
2 48777  87.8983 253.2502 0002181 120.8040 239.3305 13.15552389248342
ONEWEB-0245             
1 48778U 21045M   26198.41336898 -.00000063  00000+0 -20267-3 0  9994
2 48778  87.8990 253.1724 0002251  99.0412 261.0973 13.15548949248355
ONEWEB-0229             
1 48779U 21045N   26198.56074373 -.00000069  00000+0 -21839-3 0  9990
2 48779  87.8989 253.1404 0001999  99.6150 260.5206 13.15548016248406
ONEWEB-0228             
1 48780U 21045P   26198.13780679  .00000180  00000+0  44302-3 0  9990
2 48780  87.8994 253.2191 0002094  99.5965 260.5402 13.15548997248268
ONEWEB-0232             
1 48781U 21045Q   26198.11232635 -.00000105  00000+0 -31291-3 0  9995
2 48781  87.8992 253.2246 0002141  96.8341 263.3033 13.15547531248588
ONEWEB-0231             
1 48782U 21045R   26198.62254203 -.00000049  00000+0 -16497-3 0  9995
2 48782  87.8991 253.1340 0002256 103.1046 257.0337 13.15547481248348
ONEWEB-0234             
1 48783U 21045S   26198.88860647 -.00000079  00000+0 -24437-3 0  9995
2 48783  87.8993 253.0634 0002697  84.0873 276.0564 13.15547620248517
ONEWEB-0238             
1 48784U 21045T   26198.58463389  .00000018  00000+0  13464-4 0  9995
2 48784  87.8991 253.1204 0002379  90.3354 269.8049 13.15548177248371
ONEWEB-0240             
1 48785U 21045U   26198.60589521  .00000126  00000+0  30108-3 0  9999
2 48785  87.8992 253.1257 0002347 100.8859 259.2536 13.15549039248409
ONEWEB-0246             
1 48786U 21045V   26198.14401335  .00000214  00000+0  53535-3 0  9992
2 48786  87.8994 253.2212 0002009 100.8004 259.3353 13.15548038248216
ONEWEB-0210             
1 48787U 21045W   26198.42288876 -.00000037  00000+0 -13191-3 0  9996
2 48787  87.8991 253.1632 0001896 122.2765 237.8550 13.15548486248299
ONEWEB-0214             
1 48788U 21045X   26198.88794016  .00000002  00000+0 -28708-4 0  9997
2 48788  87.8987 253.0673 0001753 102.3222 257.8105 13.15546428248324
ONEWEB-0221             
1 48789U 21045Y   26198.89508307  .00000040  00000+0  72370-4 0  9990
2 48789  87.8985 253.0747 0002177 101.5611 258.5764 13.15548153248415
ONEWEB-0213             
1 48790U 21045Z   26198.57975801 -.00000054  00000+0 -17850-3 0  9992
2 48790  87.8987 253.1401 0002108 105.8702 254.2660 13.15548535248433
ONEWEB-0212             
1 48791U 21045AA  26198.10042853 -.00000030  00000+0 -11420-3 0  9995
2 48791  87.8991 253.2301 0002138  95.8702 264.2672 13.15547833248366
ONEWEB-0227             
1 48792U 21045AB  26198.09964530 -.00000077  00000+0 -23874-3 0  9996
2 48792  87.8989 253.2302 0002122  98.7676 261.3695 13.15548232248312
ONEWEB-0226             
1 48793U 21045AC  26198.09330616 -.00000012  00000+0 -66173-4 0  9998
2 48793  87.8990 253.2360 0002031 103.8240 256.3117 13.15548389248285
ONEWEB-0224             
1 48794U 21045AD  26198.89349773  .00000023  00000+0  26299-4 0  9996
2 48794  87.8979 253.1090 0002984  95.6242 264.5229 13.15548503248316
ONEWEB-0233             
1 48795U 21045AE  26198.89810055  .00000148  00000+0  35818-3 0  9997
2 48795  87.8981 253.1151 0002281 103.0877 257.0508 13.15550459248338
ONEWEB-0190             
1 48796U 21045AF  26198.58134112 -.00000032  00000+0 -11794-3 0  9998
2 48796  87.8987 253.1420 0002332 114.5666 245.5707 13.15548534248361
